NORAD_CAT_ID,OBJECT_NAME,OBJECT_TYPE,EPOCH,MEAN_MOTION,ECCENTRICITY,INCLINATION,RA_OF_ASC_NODE,ARG_OF_PERICENTER,MEAN_ANOMALY,BSTAR,MEAN_MOTION_DOT,MEAN_MOTION_DDOT,TLE_LINE0,TLE_LINE1,TLE_LINE2,SEMIMAJOR_AXIS,PERIOD,APOGEE,PERIGEE,DECAYED
55405.0,STARLINK-5623,PAYLOAD,2023-08-26 12:33:16,14.9833188,0.0003271,69.9987,239.6878,271.1244,88.9541,8.4688e-06,8e-08,0.0,0 STARLINK-5623,1 55405U 23014Q   23238.52310603  .00000008  00000-0  84688-5 0  9994,2 55405  69.9987 239.6878 0003271 271.1244  88.9541 14.98331880 33327,6950.187,96.107,574.325,569.779,0.0
55405.0,STARLINK-5623,PAYLOAD,2023-08-27 09:23:01,14.98330013,0.0003251,69.9988,237.4996,271.3063,88.7723,6.7547e-06,-1.2e-07,0.0,0 STARLINK-5623,1 55405U 23014Q   23239.39098663 -.00000012  00000-0  67547-5 0  9990,2 55405  69.9988 237.4996 0003251 271.3063  88.7723 14.98330013 33455,6950.193,96.107,574.317,569.798,0.0
55405.0,STARLINK-5623,PAYLOAD,2023-08-27 12:35:17,14.98331438,0.0003268,69.9988,237.163,271.1563,88.9222,1.7714e-05,1.18e-06,0.0,0 STARLINK-5623,1 55405U 23014Q   23239.52450527  .00000118  00000-0  17714-4 0  9992,2 55405  69.9988 237.1630 0003268 271.1563  88.9222 14.98331438 32534,6950.188,96.107,574.325,569.782,0.0
55405.0,STARLINK-5623,PAYLOAD,2023-08-28 17:25:42,14.98329529,0.000327,69.9989,234.1327,269.3789,90.6996,-1.4402e-05,-2.65e-06,0.0,0 STARLINK-5623,1 55405U 23014Q   23240.72618614 -.00000265  00000-0 -14402-4 0  9995,2 55405  69.9989 234.1327 0003270 269.3789  90.6996 14.98329529 32713,6950.194,96.107,574.332,569.787,0.0
55405.0,STARLINK-5623,PAYLOAD,2023-08-29 11:03:11,14.98329592,0.0003259,69.999,232.2812,269.2484,90.8301,5.2529e-06,-3e-07,0.0,0 STARLINK-5623,1 55405U 23014Q   23241.46054576 -.00000030  00000-0  52529-5 0  9990,2 55405  69.9990 232.2812 0003259 269.2484  90.8301 14.98329592 33769,6950.194,96.107,574.324,569.794,0.0
55405.0,STARLINK-5623,PAYLOAD,2023-08-30 01:28:23,14.9833039,0.0003244,69.9992,230.7664,269.1784,90.9004,3.7512e-06,-4.8e-07,0.0,0 STARLINK-5623,1 55405U 23014Q   23242.06138519 -.00000048  00000-0  37512-5 0  9991,2 55405  69.9992 230.7664 0003244 269.1784  90.9004 14.98330390 32910,6950.192,96.107,574.311,569.802,0.0
55405.0,STARLINK-5623,PAYLOAD,2023-08-30 09:29:04,14.98322531,0.0003086,69.9994,229.9249,267.4124,92.6681,0.00016939,1.928e-05,0.0,0 STARLINK-5623,1 55405U 23014Q   23242.39518596  .00001928  00000-0  16939-3 0  9999,2 55405  69.9994 229.9249 0003086 267.4124  92.6681 14.98322531 33902,6950.216,96.107,574.226,569.936,0.0
55405.0,STARLINK-5623,PAYLOAD,2023-08-31 22:20:09,14.98331821,0.0002766,70.0031,226.0626,270.9931,89.0911,6.7355e-06,-1.3e-07,0.0,0 STARLINK-5623,1 55405U 23014Q   23243.93066495 -.00000013  00000-0  67355-5 0  9991,2 55405  70.0031 226.0626 0002766 270.9931  89.0911 14.98331821 34137,6950.187,96.107,573.975,570.13,0.0
55405.0,STARLINK-5623,PAYLOAD,2023-09-01 04:44:45,14.98281487,0.0005199,70.0023,225.3873,277.4555,82.6013,-0.00033081,-4.034e-05,0.0,0 STARLINK-5623,1 55405U 23014Q   23244.19774615 -.00004034  00000-0 -33081-3 0  9995,2 55405  70.0023 225.3873 0005199 277.4555  82.6013 14.98281487 33235,6950.343,96.11,575.821,568.594,0.0
55405.0,STARLINK-5623,PAYLOAD,2023-09-01 15:57:36,14.98344169,0.000279,70.0003,224.2058,265.6043,94.4798,0.00050208,5.905e-05,0.0,0 STARLINK-5623,1 55405U 23014Q   23244.66500824  .00005905  00000-0  50208-3 0  9992,2 55405  70.0003 224.2058 0002790 265.6043  94.4798 14.98344169 33307,6950.149,96.106,573.953,570.075,0.0
55405.0,STARLINK-5623,PAYLOAD,2023-09-02 07:58:58,14.98333948,0.0003123,70.0004,222.5184,269.3085,90.7716,1.7375e-05,1.14e-06,0.0,0 STARLINK-5623,1 55405U 23014Q   23245.33262115  .00000114  00000-0  17375-4 0  9991,2 55405  70.0004 222.5184 0003123 269.3085  90.7716 14.98333948 33400,6950.181,96.107,574.216,569.875,0.0
55405.0,STARLINK-5623,PAYLOAD,2023-09-02 15:59:38,14.98331659,0.0003114,69.9988,221.6763,269.9182,90.162,-5.6659e-06,-1.61e-06,0.0,0 STARLINK-5623,1 55405U 23014Q   23245.66642231 -.00000161  00000-0 -56659-5 0  9991,2 55405  69.9988 221.6763 0003114 269.9182  90.1620 14.98331659 34399,6950.188,96.107,574.217,569.888,0.0
55405.0,STARLINK-5623,PAYLOAD,2023-09-03 00:00:19,14.98327017,0.0003029,69.9977,220.8347,269.6091,90.4721,-4.1519e-05,-5.88e-06,0.0,0 STARLINK-5623,1 55405U 23014Q   23246.00022619 -.00000588  00000-0 -41519-4 0  9993,2 55405  69.9977 220.8347 0003029 269.6091  90.4721 14.98327017 33507,6950.202,96.107,574.172,569.962,0.0
55405.0,STARLINK-5623,PAYLOAD,2023-09-03 08:00:59,14.98330382,0.0003025,69.9998,219.9939,270.5791,89.5022,-1.3461e-05,-2.54e-06,0.0,0 STARLINK-5623,1 55405U 23014Q   23246.33402374 -.00000254  00000-0 -13461-4 0  9994,2 55405  69.9998 219.9939 0003025 270.5791  89.5022 14.98330382 34491,6950.192,96.107,574.159,569.954,0.0
55405.0,STARLINK-5623,PAYLOAD,2023-09-04 00:02:20,14.98324729,0.0003022,70.0,218.3114,269.9782,90.103,-3.8676e-05,-5.54e-06,0.0,0 STARLINK-5623,1 55405U 23014Q   23247.00162875 -.00000554  00000-0 -38676-4 0  9996,2 55405  70.0000 218.3114 0003022 269.9782  90.1030 14.98324729 33657,6950.209,96.107,574.175,569.974,0.0
55405.0,STARLINK-5623,PAYLOAD,2023-09-04 09:39:08,14.98327833,0.000297,70.0004,217.3017,272.16,87.9219,-2.0906e-05,-3.42e-06,0.0,0 STARLINK-5623,1 55405U 23014Q   23247.40218698 -.00000342  00000-0 -20906-4 0  9997,2 55405  70.0004 217.3017 0002970 272.1600  87.9219 14.98327833 34651,6950.2,96.107,574.129,570.0,0.0
55405.0,STARLINK-5623,PAYLOAD,2023-09-05 08:05:01,14.98329736,0.0003039,70.0005,214.945,273.7231,86.358,8.0491e-05,8.68e-06,0.0,0 STARLINK-5623,1 55405U 23014Q   23248.33682366  .00000868  00000-0  80491-4 0  9993,2 55405  70.0005 214.9450 0003039 273.7231  86.3580 14.98329736 33859,6950.194,96.107,574.171,569.947,0.0
55405.0,STARLINK-5623,PAYLOAD,2023-09-07 06:32:55,14.9833268,0.0002857,70.001,210.0645,268.7778,91.3054,1.347e-05,6.8e-07,0.0,0 STARLINK-5623,1 55405U 23014Q   23250.27286272  .00000068  00000-0  13470-4 0  9990,2 55405  70.0010 210.0645 0002857 268.7778  91.3054 14.98332680 34142,6950.185,96.107,574.035,570.064,0.0
55405.0,STARLINK-5623,PAYLOAD,2023-09-08 06:34:56,14.98329572,0.0002767,70.0015,207.5392,267.3626,92.7216,9.1728e-06,1.7e-07,0.0,0 STARLINK-5623,1 55405U 23014Q   23251.27426346  .00000017  00000-0  91728-5 0  9996,2 55405  70.0015 207.5392 0002767 267.3626  92.7216 14.98329572 34291,6950.194,96.107,573.982,570.136,0.0
55405.0,STARLINK-5623,PAYLOAD,2023-09-08 14:35:36,14.98327474,0.0002906,70.0012,206.6979,270.4257,89.6569,-2.3352e-05,-3.72e-06,0.0,0 STARLINK-5623,1 55405U 23014Q   23251.60806579 -.00000372  00000-0 -23352-4 0  9996,2 55405  70.0012 206.6979 0002906 270.4257  89.6569 14.98327474 35284,6950.201,96.107,574.085,570.046,0.0
55405.0,STARLINK-5623,PAYLOAD,2023-09-09 08:13:05,14.98323167,0.0002774,70.0012,204.8464,269.7891,90.295,0.00013593,1.529e-05,0.0,0 STARLINK-5623,1 55405U 23014Q   23252.34242468  .00001529  00000-0  13593-3 0  9997,2 55405  70.0012 204.8464 0002774 269.7891  90.2950 14.98323167 34456,6950.214,96.107,574.007,570.151,0.0
55405.0,STARLINK-5623,PAYLOAD,2023-09-09 14:37:37,14.98360738,0.0002963,70.0012,204.1727,274.2157,85.8663,-0.00052618,-6.371e-05,0.0,0 STARLINK-5623,1 55405U 23014Q   23252.60945702 -.00006371  00000-0 -52618-3 0  9990,2 55405  70.0012 204.1727 0002963 274.2157  85.8663 14.98360738 34497,6950.098,96.105,574.022,569.904,0.0
55405.0,STARLINK-5623,PAYLOAD,2023-09-10 01:50:34,14.98329815,0.0002805,70.0017,202.9953,270.4204,89.6633,4.0146e-05,3.86e-06,0.0,0 STARLINK-5623,1 55405U 23014Q   23253.07678263  .00000386  00000-0  40146-4 0  9999,2 55405  70.0017 202.9953 0002805 270.4204  89.6633 14.98329815 34563,6950.193,96.107,574.008,570.109,0.0
55405.0,STARLINK-5623,PAYLOAD,2023-09-10 08:15:05,14.98335234,0.0002803,70.0017,202.3219,271.5777,88.5061,6.6518e-05,7.01e-06,0.0,0 STARLINK-5623,1 55405U 23014Q   23253.34381810  .00000701  00000-0  66518-4 0  9990,2 55405  70.0017 202.3219 0002803 271.5777  88.5061 14.98335234 35541,6950.177,96.107,573.99,570.094,0.0
55405.0,STARLINK-5623,PAYLOAD,2023-09-11 03:28:43,14.98324892,0.0002304,70.0026,200.3022,256.9348,103.1554,7.9574e-06,2e-08,0.0,0 STARLINK-5623,1 55405U 23014Q   23254.14494658  .00000002  00000-0  79574-5 0  9995,2 55405  70.0026 200.3022 0002304 256.9348 103.1554 14.98324892 34726,6950.209,96.107,573.675,570.472,0.0
55405.0,STARLINK-5623,PAYLOAD,2023-09-11 08:17:07,14.98327835,0.000254,70.0022,199.797,264.3201,95.7668,3.5614e-05,3.32e-06,0.0,0 STARLINK-5623,1 55405U 23014Q   23254.34522459  .00000332  00000-0  35614-4 0  9990,2 55405  70.0022 199.7970 0002540 264.3201  95.7668 14.98327835 35697,6950.2,96.107,573.83,570.299,0.0
55405.0,STARLINK-5623,PAYLOAD,2023-09-12 01:54:35,14.98339821,0.0002466,70.0016,197.9457,276.3839,83.7039,-7.3077e-05,-9.65e-06,0.0,0 STARLINK-5623,1 55405U 23014Q   23255.07957922 -.00000965  00000-0 -73077-4 0  9997,2 55405  70.0016 197.9457 0002466 276.3839  83.7039 14.98339821 34862,6950.163,96.106,573.741,570.314,0.0
55405.0,STARLINK-5623,PAYLOAD,2023-09-12 06:42:58,14.98390626,0.0002012,70.0019,197.4409,254.4614,105.6323,-0.00080509,-9.7e-05,0.0,0 STARLINK-5623,1 55405U 23014Q   23255.27984120 -.00009700  00000-0 -80509-3 0  9992,2 55405  70.0019 197.4409 0002012 254.4614 105.6323 14.98390626 34895,6950.005,96.103,573.269,570.472,0.0
55405.0,STARLINK-5623,PAYLOAD,2023-09-12 21:08:12,14.98329611,0.0002597,70.0027,195.9275,265.0722,95.0141,6.6438e-05,7e-06,0.0,0 STARLINK-5623,1 55405U 23014Q   23255.88069772  .00000700  00000-0  66438-4 0  9991,2 55405  70.0027 195.9275 0002597 265.0722  95.0141 14.98329611 35925,6950.194,96.107,573.864,570.254,0.0
55405.0,STARLINK-5623,PAYLOAD,2023-09-13 01:56:35,14.9833757,0.000264,70.0023,195.4218,269.6196,90.4661,0.00014455,1.633e-05,0.0,0 STARLINK-5623,1 55405U 23014Q   23256.08097095  .00001633  00000-0  14455-3 0  9990,2 55405  70.0023 195.4218 0002640 269.6196  90.4661 14.98337570 35016,6950.169,96.107,573.869,570.2,0.0
